CCSDS_OMM_VERS = 2.0
CREATION_DATE  = 
ORIGINATOR     = 

OBJECT_NAME    = OKEAN-3
OBJECT_ID      = 1991-039A
CENTER_NAME    = EARTH
REF_FRAME      = TEME
TIME_SYSTEM    = UTC
MEAN_ELEMENT_THEORY = SGP/SGP4

EPOCH          = 2025-11-06T21:17:18.496896
MEAN_MOTION    = 15.03745646
ECCENTRICITY   = .0015224
INCLINATION    = 82.5153
RA_OF_ASC_NODE = 95.7382
ARG_OF_PERICENTER = 32.3159
MEAN_ANOMALY   = 327.8996

EPHEMERIS_TYPE = 0
CLASSIFICATION_TYPE = U
NORAD_CAT_ID   = 21397
ELEMENT_SET_NO = 999
REV_AT_EPOCH   = 84657
BSTAR          = .38943E-3
MEAN_MOTION_DOT = .5383E-4
MEAN_MOTION_DDOT = 0

CCSDS_OMM_VERS = 2.0
CREATION_DATE  = 
ORIGINATOR     = 

OBJECT_NAME    = COSMOS 2151
OBJECT_ID      = 1991-042A
CENTER_NAME    = EARTH
REF_FRAME      = TEME
TIME_SYSTEM    = UTC
MEAN_ELEMENT_THEORY = SGP/SGP4

EPOCH          = 2025-11-07T02:59:36.028320
MEAN_MOTION    = 14.99490410
ECCENTRICITY   = .0014018
INCLINATION    = 82.4992
RA_OF_ASC_NODE = 201.8144
ARG_OF_PERICENTER = 110.0349
MEAN_ANOMALY   = 250.2385

EPHEMERIS_TYPE = 0
CLASSIFICATION_TYPE = U
NORAD_CAT_ID   = 21422
ELEMENT_SET_NO = 999
REV_AT_EPOCH   = 84482
BSTAR          = .22512E-3
MEAN_MOTION_DOT = .2793E-4
MEAN_MOTION_DDOT = 0

CCSDS_OMM_VERS = 2.0
CREATION_DATE  = 
ORIGINATOR     = 

OBJECT_NAME    = SL-14 R/B
OBJECT_ID      = 1991-042B
CENTER_NAME    = EARTH
REF_FRAME      = TEME
TIME_SYSTEM    = UTC
MEAN_ELEMENT_THEORY = SGP/SGP4

EPOCH          = 2025-11-07T03:00:52.468992
MEAN_MOTION    = 14.81689254
ECCENTRICITY   = .0015511
INCLINATION    = 82.4926
RA_OF_ASC_NODE = 335.1248
ARG_OF_PERICENTER = 285.3602
MEAN_ANOMALY   = 74.5898

EPHEMERIS_TYPE = 0
CLASSIFICATION_TYPE = U
NORAD_CAT_ID   = 21423
ELEMENT_SET_NO = 999
REV_AT_EPOCH   = 83492
BSTAR          = .6405E-4
MEAN_MOTION_DOT = .528E-5
MEAN_MOTION_DDOT = 0

CCSDS_OMM_VERS = 2.0
CREATION_DATE  = 
ORIGINATOR     = 

OBJECT_NAME    = ERS-1
OBJECT_ID      = 1991-050A
CENTER_NAME    = EARTH
REF_FRAME      = TEME
TIME_SYSTEM    = UTC
MEAN_ELEMENT_THEORY = SGP/SGP4

EPOCH          = 2025-11-07T00:08:09.482784
MEAN_MOTION    = 14.39321761
ECCENTRICITY   = .0031556
INCLINATION    = 98.7926
RA_OF_ASC_NODE = 321.1629
ARG_OF_PERICENTER = 204.5084
MEAN_ANOMALY   = 155.4604

EPHEMERIS_TYPE = 0
CLASSIFICATION_TYPE = U
NORAD_CAT_ID   = 21574
ELEMENT_SET_NO = 999
REV_AT_EPOCH   = 79808
BSTAR          = .14648E-3
MEAN_MOTION_DOT = .411E-5
MEAN_MOTION_DDOT = 0

CCSDS_OMM_VERS = 2.0
CREATION_DATE  = 
ORIGINATOR     = 

OBJECT_NAME    = ARIANE 40 R/B
OBJECT_ID      = 1991-050F
CENTER_NAME    = EARTH
REF_FRAME      = TEME
TIME_SYSTEM    = UTC
MEAN_ELEMENT_THEORY = SGP/SGP4

EPOCH          = 2025-11-07T03:22:01.997760
MEAN_MOTION    = 14.42765617
ECCENTRICITY   = .0004351
INCLINATION    = 98.2218
RA_OF_ASC_NODE = 2.8471
ARG_OF_PERICENTER = 88.7993
MEAN_ANOMALY   = 271.3696

EPHEMERIS_TYPE = 0
CLASSIFICATION_TYPE = U
NORAD_CAT_ID   = 21610
ELEMENT_SET_NO = 999
REV_AT_EPOCH   = 80132
BSTAR          = .15593E-3
MEAN_MOTION_DOT = .478E-5
MEAN_MOTION_DDOT = 0

CCSDS_OMM_VERS = 2.0
CREATION_DATE  = 
ORIGINATOR     = 

OBJECT_NAME    = INTERCOSMOS 25
OBJECT_ID      = 1991-086A
CENTER_NAME    = EARTH
REF_FRAME      = TEME
TIME_SYSTEM    = UTC
MEAN_ELEMENT_THEORY = SGP/SGP4

EPOCH          = 2025-11-06T17:17:16.944000
MEAN_MOTION    = 12.11571369
ECCENTRICITY   = .14886408
INCLINATION    = 82.6093
RA_OF_ASC_NODE = 24.3458
ARG_OF_PERICENTER = 22.0279
MEAN_ANOMALY   = 343.8454

EPHEMERIS_TYPE = 0
CLASSIFICATION_TYPE = U
NORAD_CAT_ID   = 21819
ELEMENT_SET_NO = 999
REV_AT_EPOCH   = 48179
BSTAR          = .33947093E-3
MEAN_MOTION_DOT = .1748E-4
MEAN_MOTION_DDOT = 0

CCSDS_OMM_VERS = 2.0
CREATION_DATE  = 
ORIGINATOR     = 

OBJECT_NAME    = SL-8 R/B
OBJECT_ID      = 1992-008B
CENTER_NAME    = EARTH
REF_FRAME      = TEME
TIME_SYSTEM    = UTC
MEAN_ELEMENT_THEORY = SGP/SGP4

EPOCH          = 2025-11-07T04:37:39.217728
MEAN_MOTION    = 13.75947992
ECCENTRICITY   = .0036022
INCLINATION    = 82.9292
RA_OF_ASC_NODE = 358.8861
ARG_OF_PERICENTER = 116.0469
MEAN_ANOMALY   = 304.1222

EPHEMERIS_TYPE = 0
CLASSIFICATION_TYPE = U
NORAD_CAT_ID   = 21876
ELEMENT_SET_NO = 999
REV_AT_EPOCH   = 69257
BSTAR          = .11741E-3
MEAN_MOTION_DOT = .13E-5
MEAN_MOTION_DDOT = 0

CCSDS_OMM_VERS = 2.0
CREATION_DATE  = 
ORIGINATOR     = 

OBJECT_NAME    = SL-8 R/B
OBJECT_ID      = 1992-020B
CENTER_NAME    = EARTH
REF_FRAME      = TEME
TIME_SYSTEM    = UTC
MEAN_ELEMENT_THEORY = SGP/SGP4

EPOCH          = 2025-11-06T18:01:45.648192
MEAN_MOTION    = 13.75520385
ECCENTRICITY   = .00276693
INCLINATION    = 82.9302
RA_OF_ASC_NODE = 245.0397
ARG_OF_PERICENTER = 282.0480
MEAN_ANOMALY   = 87.4453

EPHEMERIS_TYPE = 0
CLASSIFICATION_TYPE = U
NORAD_CAT_ID   = 21938
ELEMENT_SET_NO = 999
REV_AT_EPOCH   = 68423
BSTAR          = .49223415E-4
MEAN_MOTION_DOT = .62E-6
MEAN_MOTION_DDOT = 0

CCSDS_OMM_VERS = 2.0
CREATION_DATE  = 
ORIGINATOR     = 

OBJECT_NAME    = USA 81
OBJECT_ID      = 1992-023A
CENTER_NAME    = EARTH
REF_FRAME      = TEME
TIME_SYSTEM    = UTC
MEAN_ELEMENT_THEORY = SGP/SGP4

EPOCH          = 2025-11-07T03:01:18.159168
MEAN_MOTION    = 14.32306793
ECCENTRICITY   = .0002739
INCLINATION    = 85.0116
RA_OF_ASC_NODE = 202.1098
ARG_OF_PERICENTER = 80.9443
MEAN_ANOMALY   = 279.2060

EPHEMERIS_TYPE = 0
CLASSIFICATION_TYPE = U
NORAD_CAT_ID   = 21949
ELEMENT_SET_NO = 999
REV_AT_EPOCH   = 7724
BSTAR          = .89809E-4
MEAN_MOTION_DOT = .262E-5
MEAN_MOTION_DDOT = 0

CCSDS_OMM_VERS = 2.0
CREATION_DATE  = 
ORIGINATOR     = 

OBJECT_NAME    = COSMOS 2219
OBJECT_ID      = 1992-076A
CENTER_NAME    = EARTH
REF_FRAME      = TEME
TIME_SYSTEM    = UTC
MEAN_ELEMENT_THEORY = SGP/SGP4

EPOCH          = 2025-11-07T03:25:36.217920
MEAN_MOTION    = 14.14062720
ECCENTRICITY   = .0017287
INCLINATION    = 71.0603
RA_OF_ASC_NODE = 274.2411
ARG_OF_PERICENTER = 20.4090
MEAN_ANOMALY   = 339.7719

EPHEMERIS_TYPE = 0
CLASSIFICATION_TYPE = U
NORAD_CAT_ID   = 22219
ELEMENT_SET_NO = 999
REV_AT_EPOCH   = 70105
BSTAR          = .16107E-3
MEAN_MOTION_DOT = .26E-5
MEAN_MOTION_DDOT = 0

CCSDS_OMM_VERS = 2.0
CREATION_DATE  = 
ORIGINATOR     = 

OBJECT_NAME    = SL-16 R/B
OBJECT_ID      = 1992-076B
CENTER_NAME    = EARTH
REF_FRAME      = TEME
TIME_SYSTEM    = UTC
MEAN_ELEMENT_THEORY = SGP/SGP4

EPOCH          = 2025-11-06T19:09:55.162368
MEAN_MOTION    = 14.16833334
ECCENTRICITY   = .00151025
INCLINATION    = 70.9991
RA_OF_ASC_NODE = 87.2373
ARG_OF_PERICENTER = 280.7329
MEAN_ANOMALY   = 228.0020

EPHEMERIS_TYPE = 0
CLASSIFICATION_TYPE = U
NORAD_CAT_ID   = 22220
ELEMENT_SET_NO = 999
REV_AT_EPOCH   = 70442
BSTAR          = .15316125E-3
MEAN_MOTION_DOT = .259E-5
MEAN_MOTION_DDOT = 0

CCSDS_OMM_VERS = 2.0
CREATION_DATE  = 
ORIGINATOR     = 

OBJECT_NAME    = COSMOS 2221
OBJECT_ID      = 1992-080A
CENTER_NAME    = EARTH
REF_FRAME      = TEME
TIME_SYSTEM    = UTC
MEAN_ELEMENT_THEORY = SGP/SGP4

EPOCH          = 2025-11-06T16:34:43.210560
MEAN_MOTION    = 14.95543144
ECCENTRICITY   = .00133153
INCLINATION    = 82.5073
RA_OF_ASC_NODE = 36.8177
ARG_OF_PERICENTER = 242.8647
MEAN_ANOMALY   = 117.1217

EPHEMERIS_TYPE = 0
CLASSIFICATION_TYPE = U
NORAD_CAT_ID   = 22236
ELEMENT_SET_NO = 999
REV_AT_EPOCH   = 76240
BSTAR          = .28196695E-3
MEAN_MOTION_DOT = .3155E-4
MEAN_MOTION_DDOT = 0

